{
    "links": {
        "self": "http://www.neowsapp.com/rest/v1/neo/3713932?api_key=iIulBulltgU6a56xZRHN4H3l9WmuAYTsLGpBGhQ2"
    },
    "id": "3713932",
    "neo_reference_id": "3713932",
    "name": "(2015 FN33)",
    "designation": "2015 FN33",
    "nasa_jpl_url": "http://ssd.jpl.nasa.gov/sbdb.cgi?sstr=3713932",
    "absolute_magnitude_h": 25.8,
    "estimated_diameter": {
        "kilometers": {
            "estimated_diameter_min": 0.0183888672,
            "estimated_diameter_max": 0.0411187571
        },
        "meters": {
            "estimated_diameter_min": 18.388867207,
            "estimated_diameter_max": 41.1187571041
        },
        "miles": {
            "estimated_diameter_min": 0.0114263088,
            "estimated_diameter_max": 0.0255500032
        },
        "feet": {
            "estimated_diameter_min": 60.3309310875,
            "estimated_diameter_max": 134.9040630575
        }
    },
    "is_potentially_hazardous_asteroid": false,
    "close_approach_data": [
        {
            "close_approach_date": "2010-09-03",
            "close_approach_date_full": "2010-Sep-03 07:34",
            "epoch_date_close_approach": 1283499240000,
            "relative_velocity": {
                "kilometers_per_second": "17.9146973575",
                "kilometers_per_hour": "64492.9104870511",
                "miles_per_hour": "40073.3865190235"
            },
            "miss_distance": {
                "astronomical": "0.4411201969",
                "lunar": "171.5957565941",
                "kilometers": "65990641.870220603",
                "miles": "41004683.4457182014"
            },
            "orbiting_body": "Earth"
        },
        {
            "close_approach_date": "2015-04-06",
            "close_approach_date_full": "2015-Apr-06 21:01",
            "epoch_date_close_approach": 1428354060000,
            "relative_velocity": {
                "kilometers_per_second": "5.1706461587",
                "kilometers_per_hour": "18614.3261713253",
                "miles_per_hour": "11566.2183923993"
            },
            "miss_distance": {
                "astronomical": "0.025220741",
                "lunar": "9.810868249",
                "kilometers": "3772969.13342167",
                "miles": "2344414.307572246"
            },
            "orbiting_body": "Earth"
        },
        {
            "close_approach_date": "2015-10-05",
            "close_approach_date_full": "2015-Oct-05 21:21",
            "epoch_date_close_approach": 1444080060000,
            "relative_velocity": {
                "kilometers_per_second": "4.7412795364",
                "kilometers_per_hour": "17068.6063309719",
                "miles_per_hour": "10605.7681949308"
            },
            "miss_distance": {
                "astronomical": "0.255474635",
                "lunar": "99.379633015",
                "kilometers": "38218461.23502745",
                "miles": "23747850.60898081"
            },
            "orbiting_body": "Earth"
        },
        {
            "close_approach_date": "2021-08-28",
            "close_approach_date_full": "2021-Aug-28 07:21",
            "epoch_date_close_approach": 1630135260000,
            "relative_velocity": {
                "kilometers_per_second": "14.0328710365",
                "kilometers_per_hour": "50518.335731301",
                "miles_per_hour": "31390.1292214853"
            },
            "miss_distance": {
                "astronomical": "0.3083742049",
                "lunar": "119.9575657061",
                "kilometers": "46132124.215983563",
                "miles": "28665172.7660886494"
            },
            "orbiting_body": "Earth"
        }
    ],
    "orbital_data": {
        "orbit_id": "8",
        "orbit_determination_date": "2017-04-06 08:35:02",
        "first_observation_date": "2015-03-16",
        "last_observation_date": "2015-03-26",
        "data_arc_in_days": 10,
        "observations_used": 22,
        "orbit_uncertainty": "8",
        "minimum_orbit_intersection": ".0251745",
        "jupiter_tisserand_invariant": "5.476",
        "epoch_osculation": "2457104.5",
        "eccentricity": ".1792878575930378",
        "semi_major_axis": "1.142025665891077",
        "inclination": "3.347114130774054",
        "ascending_node_longitude": "352.2641688548591",
        "orbital_period": "445.7714226068068",
        "perihelion_distance": ".9372743309372036",
        "perihelion_argument": "261.673665195221",
        "aphelion_distance": "1.346777000844951",
        "perihelion_time": "2457170.658221724837",
        "mean_anomaly": "306.5713623325982",
        "mean_motion": ".8075887814763272",
        "equinox": "J2000",
        "orbit_class": {
            "orbit_class_type": "APO",
            "orbit_class_description": "Near-Earth asteroid orbits which cross the Earth’s orbit similar to that of 1862 Apollo",
            "orbit_class_range": "a (semi-major axis) > 1.0 AU; q (perihelion) < 1.017 AU"
        }
    },
    "is_sentry_object": false
}